id,name,city,address_1,address_2,lat,lon
10076622,"Oracle Campus - Building 5, Rocky Mountain Conference Room Room #1023","Broomfield","500 Eldorado Blvd",,39.919266,-105.124352
1009735,"Harlequin Plaza, North","Englewood","7600 E. Orchard Rd",,39.607646,-104.900672
1009974,"DeVry University","Westminster","1870 W. 122nd Ave.",,39.919343,-105.008897
10106642,"Maroon Bells 1 & 2   ","denver"," 7595 Technology Way Suite 400, 80237",,39.630562,-104.902756
1018418,"Boulder County Fairgrounds","Longmont","9595 Nelson Road",,40.155854,-105.127888
10191402,"SendGrid Denver Office","Denver","1451 Larimer Street,  3rd Floor ",,39.747997,-104.998985
10212072,"Factory Design Labs","Denver","158 Fillmore Street",,39.718925,-104.953217
10246392,"Rock Bottom Brewery & Restaurant  Buffalo Lounge","Denver","9627 East County Line Road Englewood, Colorado 80112",,39.568432,-104.873993
1025327,"Denver Marriott City Center","Denver","1700 California Street",,39.746127,-104.990955
10256292,"Simple Energy","Boulder","1215 Spruce Street #201",,40.019268,-105.280037
10307402,"Casselman's Bar and Venue","Denver","2620 Walnut Street",,39.759495,-104.985664
1037682,"Atlas Purveyors","Boulder","1505 Pearl St",,40.018913,-105.275948
10428632,"Google","Boulder","2600 Pearl Street",,40.02187,-105.26004
10494232,"Cable Center","Denver","2000 Buchtel Boulevard",,39.683804,-104.963547
10515022,"Co-Motion","Boulder","3200 Carbon Place Suite 101, Boulder, CO 80301",,40.026299,-105.25177
10517252,"Spire Media","Denver","2911 Walnut Street",,39.762394,-104.9823
1063100,"Google Boulder","Boulder","2590 Pearl Street",,40.02151,-105.261008
10640372,"Crankset Business Transformation Center - Triad North","Greenwood Village","5660 Greenwood Plaza Blvd., Suite 110",,39.61367,-104.898232
10699092,"Battery 621","Denver","621 Kalamath Street",,39.726021,-105.00016
10792502,"Cisco Systems","Centennial","9155 East Nichols Avenue",,39.572102,-104.882332
10878262,"Sports Data Hub Offices at Galvanize","Denver","1062 Delaware St",,39.733536,-104.992615
1092008,"PS Lounge","Denver","3416 E Colfax Ave",,39.739928,-104.946715
1098756,"Hooked on Colfax","Denver","3213 E. Colfax",,39.740376,-104.949656
11005272,"Redline","Denver","2350 Arapahoe Street",,39.754837,-104.986153
1111223,"Regis University","Denver","3333 Regis Blvd",,39.787598,-105.032366
11125962,"Black Eye Coffee Shop","Denver","3408 Navajo Street",,39.764633,-105.004105
11216662,"Deloitte Digital","Denver","1400 16th Street, Suite 450 (16th between Blake and Market)",,39.737568,-104.984718
1131835,"Oskar Blues","Lyons","310 Main Street",,40.224628,-105.267809
1132080,"TBD","Denver, CO","TBD",,39.739154,-104.984703
11330132,"University of Colorado Boulder","Boulder","ECCR 265 ( for directions see http://www.colorado.edu/cs/about/directions )",,40.014984,-105.270546
11342732,"Boulder Valley Unitarian Universalist Fellowship","Lafayette","1241 Ceres Dr",,39.988613,-105.113495
11433262,"Google Boulder","Boulder","2610 Pearl St",,40.021675,-105.260658
11454892,"Press Play","Boulder","1005 pearl street",,40.017544,-105.282356
11476472,"FUSE at the Riverside","Boulder","1724 Broadway",,40.014591,-105.278809
11530802,"Punch Bowl Social","Denver","65 Broadway",,39.71793,-104.987984
1156890,"Snow Mountain Ranch","Winter Park","US 40 12 mi past town of Winter Park on left",,39.891655,-105.763062
11643382,"Stoney's Full Steam Tavern","Denver","1434 Blake St",,39.749126,-105.000832
11767782,"Wooly Mammoth Park & Ride, Section JJ","Denver","I-70 and 93",,39.740627,-104.988602
11854052,"Aten Design Group","Denver","3507 Ringsby Court",,39.773354,-104.981354
1213717,"Cohere, LLC","Fort Collins","215 Jefferson Street","2nd Floor above Desiree's Photography",40.58937,-105.075417
12201492,"reCyclery bike shop","Denver","1405 Ogden Street",,39.738583,-104.975471
12231912,"Online Webinar ","Littleton","Enjoy from the comfort of your own home ",,39.613319,-105.016647
1225943,"Boulder Digital Works","Boulder","1011 Walnut","2nd Floor",40.016687,-105.282065
12296632,"GroupHigh","Boulder","1898 South Flatiron Court #125",,40.020142,-105.217995
1231384,"University of Colorado Denver","Denver","1200 Larimer St","North Classroom Building, Auraria Campus",39.745859,-105.002604
1235197,"Return Path","Broomfield","8001 Arista Place","Suite 300",39.905802,-105.087512
1237748,"Hooked on Colfax","Denver","3215 E. Colfax Ave.",,39.740375,-104.949589
1241118,"The Village Tavern","Broomfield","1 West Flatiron Circle, Suite 100 ",,39.930994,-105.1268
1247655,"The Cup Espresso Cafe","Boulder","1521 Pearl Street",,40.019137,-105.275413
12495612,"Pellucid Analytics","Boulder","1426 Pearl St. Suite 100",,40.01852,-105.276604
12516002,"Stoney's Full Steam Tavern","Denver","1434 Blake St  Denver , CO 80202",,39.749126,-105.000832
12519482,"Gary Lee's Motor Club and Grub","Denver","176 South Broadway",,39.713112,-104.987144
12535182,"Solid State Depot","Boulder","1965 33rd Street, UNIT B",,40.020401,-105.24958
12535182,"Solid State Depot","Boulder","1965 33rd Street, UNIT B",,40.021553,-105.25022
12535182,"Solid State Depot","Boulder","1965 33rd Street, UNIT B",,40.02157,-105.25026
1256019,"Air Force Academy, Doolittle Hall","USAF Academy","3116 Academy Drive",,39.003114,-104.868813
12579352,"ReadyTalk Offices","Denver","1900 16th Street Suite 600",,39.753178,-105.002846
12590282,"Code","Denver"," 2990 Larimer St. ",,39.762005,-104.980545
12590282,"Code","Denver"," 2990 Larimer St. ",,39.76209,-104.98056
12618362,"Boettcher West, Room 123 ","Denver","2050 E. Iliff Ave",,39.674404,-104.963158
1263375,"Gnip","Boulder","1601 Pearl Street",,40.019011,-105.274674
12670592,"Fuse at The Riverside","Boulder","1724 Broadway",,40.0145,-105.278503
12771092,"Mainstreet Center","Parker","19650 East Mainstreet",,39.51757,-104.760574
1277578,"Boulder Digital Arts","Boulder","1600 Range Street","Suite 100",40.015122,-105.229601
12863322,"Oracle","Boulder","1300 Walnut St. Suite 200, Second Floor",,40.014984,-105.270546
1290394,"Auraria Campus, Tivoli Bldg","Denver","Rm 320 Section A - Baerresen Ballroom","900 Walnut Street",39.738037,-105.02652
12964402,"TechStars","Boulder","1050 Walnut Street",,40.016212,-105.281326
12997722,"CU Muenzinger Room D428/430","Boulder","1801 Colorado Avenue",,40.008247,-105.26931
13020612,"Co-Motion Boulder","Boulder","3200 Carbon Place",,40.02623,-105.251373
1312344,"Microsoft Store","Lone Tree","Park Meadows Mall","8505 Park Meadows Center Dr., Suite 2095",39.56433,-104.8747
13195002,"Innovation Pavilion","Englewood","9200 east Mineral Ave #325",,39.574008,-104.882095
13276932,"Blue Bonnet Cafe","Denver","457 South Broadway",,39.708157,-104.987808
13282242,"Denver Public Library Central Branch","Denver","10 W 14th Avenue",,39.738434,-104.987541
13291662,"Send Grid","Denver","1451 Larimer Street",,39.748005,-104.998993
1339918,"Aims Community College ","Greeley","5401 West 20th Street ","Ed Beaty Hall, BH110 ",40.407157,-104.766934
1339983,"Walker Fine Art Gallery","Denver"," 300 W. 11th Avenue #A ",,39.733483,-104.992034
13409772,"Deep Space Event Center","Parker","11020 S. Pikes Peak Dr. #50 ",,39.516769,-104.761703
1346067,"Isidorey","Denver","7350 E 29th AVE ","Suite 203",39.757939,-104.90216
1352563,"Oracle","Broomfield","The grand canyon room, Building 5","500 Eldorado Boulevard",39.892517,-105.114204
1353453,"quicloud offices / DaVinci Vault","Louisville","511 E South Boulder Rd",,39.987244,-105.136482
13560832,"iTriage","Denver","1500 Wynkoop St. Suite 500",,39.750946,-105.002083
13562222,"West Flanders Brewing Co and Restaurant ","Boulder","1125 Pearl St",,40.018047,-105.280693
1357209,"Austin’s Homestead at Pelican Lakes  ","Windsor","1600 Pelican Lakes Point,",,40.477482,-104.901362
1357666,"UC - Denver","Denver","1250 14th St",,39.746728,-104.999514
13701392,"NewMedia","Denver","1925 Blake Street #101",,39.753956,-104.995216
13701462,"New Media Denver","Denver","1925 Blake St., Suite 100",,39.753956,-104.995216
13762792,"Platypus Papers, LLC","Erie","212 Wells St. Ste. H",,40.050159,-105.047729
13854542,"Commerce Kitchen","Denver","600 South Broadway",,39.705559,-104.987236
1388153,"MapQuest HQ","Denver","555 17th St.",,39.745208,-104.98956
1393819,"Safeway","Idaho Springs","2425 Miner Street",,39.740974,-105.50615
13946062,"Online Webinar","NJ","http://www.edupristine.com/webinars/lesser-known-but-useful-facts-about-some-excel-functions-charts-2/",,40.714352,-74.005974
1403232,"Lowry Conference center","Denver","1061 Akron Way",,39.728615,-104.886219
14160672,"Return Path","Broomfield","8001 Arista Place, 3rd floor",,39.905819,-105.087517
1416391,"Niza Knoll Gallery","Denver","915 Santa Fe Drive",,39.730748,-104.99886
1425012,"Auraria Campus, Tivoli Bldg","Denver","Rm 642 ","900 Walnut Street",39.678039,-104.909108
1426170,"USGS ","Lakewood","West 6th Ave. & Kipling St.","DFC Bldg. 810",39.727206,-105.109783
14268802,"Code","Denver","2980 Larimer Street",,39.762173,-104.980644
1430812,"Variant Studios, Inc.","Fort Collins","141 South College Ave","Suite 103",40.586154,-105.077287
14351642,"Online Webinar","NJ","http://www.edupristine.com/webinars/predictive-modeling-learn-about-heteroskedasticity-fix-it-using-excel/",,40.714352,-74.005974
14351892,"Online Webinar","NJ","http://www.edupristine.com/webinars/explore-some-awesome-excel-shortcuts-to-audit-financial-models/",,40.714352,-74.005974
14368382,"Online Webinar","NJ","http://www.edupristine.com/webinars/predictive-modeling-use-r-to-understand-heteroskedasticity-and-fix-it/",,40.714352,-74.005974
14371062,"Online Webinar","NJ","http://www.edupristine.com/webinars/learn-to-develop-cash-flow-template-for-accenture/ ",,40.714352,-74.005974
14424152,"Historians Ale House","Denver","24 Broadway ",,39.717175,-104.987457
14431612,"CableLabs","Louisville","858 Coal Creek Circle",,39.957088,-105.160263
14569582,"Bohemian Biergarten","Boulder","2017 13th Street",,40.018333,-105.278725
14574512,"Aspen Perk Cafe","Conifer","27182 Main Street",,39.527,-105.30467
14577562,"Online Webinar","NJ","http://www.edupristine.com/webinars/start-your-level-i-frm-exam-preparation-on-the-right-note/",,40.714352,-74.005974
14602132,"Upslope Brewery","Boulder","1898 S. Flatiron Court Boulder, CO 80301",,40.020142,-105.217995
14647652,"Tarryall Reservoir","Pike National Forest","county road 77",,39.227665,-105.61439
14840502,"Midway Park","Broomfield","1200 W Midway Blvd",,39.92239,-105.084961
1486705,"Dojo4","Boulder","2030 17th Street",,40.019852,-105.273407
14873492,"Courtyard Boulder Louisville","Louisville","948 West Dillon Road",,39.958981,-105.163544
1496337,"Auraria Higher Education Center: Health Center-Auraria Plaza Building","Denver","955 Lawrence Way # 150",,39.74316,-105.005859
14973692,"Prost Brewing Company","Denver","2540 19th Street",,39.760269,-105.003983
14987652,"Remote/Online","Denver","123 Your Home",,39.737568,-104.984718
14987652,"Remote/Online","Denver","123 Your Home",,39.7392,-104.98886
1499785,"Pivotal Labs - Boulder","Boulder","1701 Pearl Street",,40.019375,-105.273308
15034632,"Photobucket","Denver","2399 Blake Street, Suite 160",,39.758488,-104.990303
1508719,"Applied Trust","Boulder","1033 Walnut Street",,40.016945,-105.281494
1512659,"Denver Water","Denver","1600 W. 12th Ave.",,39.731186,-105.009087
15127702,"SendGrid","Denver","1451 Larimer Street 3rd Floor Denver, CO 80202",,39.748108,-104.998863
15134702,"ViaWest Corporate Office - Training Room","Greenwood Village","6400 S. Fiddler's Green Circle Suite 2000",,39.599602,-104.890495
15137732,"Rocky Mountain Center for Innovation & Technology","Loveland","815 14th Street Southwest ",,40.378372,-105.088676
15268762,"Convercent ","Denver","929 Broadway",,39.731251,-104.987846
15283682,"Fortrust Data Center","Denver"," 4300 Brighton Blvd",,39.777424,-104.968346
1532503,"Microsoft","Denver","7595 Technology Way #400",,39.630449,-104.902793
1540161,"ESRI","Broomfield","1 International Court",,39.919472,-105.116608
1546220,"OneRiot HQ","Boulder","1050 Walnut Street, Suite 202",,40.016083,-105.281189
15469902,"Datalogix","Westminster","10075 Westmoor Drive",,39.896515,-105.110321
15532992,"Innovation Pavilion","Centennial","9200 E. Mineral Avenue",,39.573635,-104.882187
15604612,"Trackvia Inc","Denver","1675 Larimer Street #500",,39.749916,-104.996773
1563804,"MapQuest","Denver","1555 Blake St, 3rd Floor",,39.75037,-104.99942
15750202,"Denver Marriott City Center, 1701 California St, Denver, CO 80202","Denver","Denver Marriott City Center, 1701 California St, Denver, CO 80202",,39.754105,-105.000221
1575152,"Inspiringapps","Boulder","1045 Pearl Street",,40.017593,-105.281502
15754332,"SCRIB http://scrib.co/","Boulder","2060 Broadway St. Boulder, 80303 (Pearl & Broadway)",,40.01861,-105.27985
1582359,"Copper Mountain Resort","Copper Mountain","290 Ten Mile Circle",,39.501343,-106.150185
15833382,"Galvanize","Denver","1062 Delaware Street",,39.733536,-104.992615
1587790,"Highland Tap & Burger","Denver","2219 West 32nd Avenue",,39.76218,-105.013367
15878392,"Discovery Learning Center","Boulder","Engineering Drive",,40.006386,-105.260902
15887202,"10075 Westmoor Dr","Westminster","10075 Westmoor Dr",,39.896515,-105.110321
15922982,"Casselman's","Denver","2620 Walnut Street",,39.759388,-104.985497
15937712,"Code Talent","Denver","2980 Larimer St.",,39.762093,-104.980743
15947662,"The Posner Center for International Development","Denver","33rd and Arapahoe",,39.617058,-105.085266
1598072,"Mile High United Way","Denver","2505 18th Street",,39.760548,-105.007126
1603469,"Missile Site Park","Greeley","10611 Spur 257",,40.4212,-104.859184
16036172,"Double Encore","Denver","820 16th Street",,39.746143,-104.993919
16156232,"Block Building","Denver","2980 Larimer",,39.762093,-104.980743
16270622,"Boulder Reservior","Boulder","5565 N. 51st St.",,40.073963,-105.236923
16310132,"RefactorU","Boulder","5717 Arapahoe Avenue #216",,40.017429,-105.220329
16345832,"Gnip Boulder","Boulder","1050 Walnut St, Suite 115",,40.016212,-105.281326
16360932,"OpDemand","Boulder","1320 Pearl Street, Suite 210",,40.018276,-105.27784
1636271,"The Registry","Boulder","1113 Spruce Street",,40.018799,-105.281288
16365412,"Oracle Broomfield Office: Bldg 1 Conference Room 1 and 2","Broomfield","500 Eldorado Blvd ",,39.920284,-105.125771
1637305,"Jive Software Inc","Boulder","1433 Pearl St # 300",,40.018681,-105.276489
16428992,"Koelbel building, Leeds School of Business, Room 255","Boulder","995 Regent Drive Boulder, CO",,40.005638,-105.264091
16518232,"Engineering Center, University of Colorado Boulder, Boulder, CO 80305","Boulder","Engineering Center, University of Colorado Boulder, Boulder, CO 80305",,40.00679,-105.262817
16590272,"Epic Brewing Company","Denver","3001 Walnut Street",,39.763344,-104.981422
16682902,"Denver Beer Co","Denver","1695 Platte Street",,39.758221,-105.00737
16700482,"Koelbel building, Leeds School of Business, Room 320","Boulder","995 Regent Drive",,40.005638,-105.264091
16739012,"Docker Global Hack Day","Worlwide","42 Docker Hacker Way",,36.778259,-119.417931
16857232,"Kapost","Boulder","1800 Broadway, Suite 180",,40.016769,-105.279343
16888692,"The Block Building","Denver","2980 Larimer Street, Denver, CO",,39.762112,-104.980721
16950832,"Koelbel building, Leeds School of Business, Room 330","Boulder","995 Regent Drive",,40.005638,-105.264091
16981892,"Colorado School of Public Health - University of Colorado","Aurora","13001 East 17th Place",,39.745197,-104.837708
17161362,"iN-TEA","Littleton","2440 West Main Street",,39.613705,-105.016792
17184462,"iN-TEA","Littleton","2440 West Main Street",,39.613705,-105.016792
17217212,"Roostercat Coffee House","Denver","1045 Lincoln Street",,39.732956,-104.986359
1722961,"Rock Bottom Brewery","Westminster","10633 Westminster Blvd Suite 900 Westminster, CO 80020",,39.889465,-105.069473
172444,"Burnsley All Suite Hotel","Denver","1000 Grant St",,39.732388,-104.983185
17301892,"Coopersmith's Pub & Brewing","Fort Collins","5 Old Town Square",,40.587223,-105.075554
173170,"Mercury Cafe","Denver","The Mercury Cafe, 2199 California St.","Denver, CO",39.750759,-104.98513
17428142,"MyWedding.com","Castle Rock","4700 Castleton Way Suite #210",,0,0
17601932,"""Code"" Headquarters","Denver","2980 Larimer St.",,39.76204,-104.9808
17675112,"The Aquaponic Source ","Longmont","1860 Lefthand Cir",,40.142311,-105.12487
17700012,"Double Encore Inc","Denver","820 16th St # 700",,39.746384,-104.993744
17715872,"Level 3 Communications, Inc.","Broomfield","1025 Eldorado Boulevard",,39.920601,-105.144279
17843292,"Caution West","Denver","1057 S. Wadsworth Blvd #60",,39.697926,-105.082153
17843292,"Caution West","Denver","1057 S. Wadsworth Blvd #60",,39.6981,-105.082375
1786881,"303 Vodka","Boulder","2500 47th Street",,40.025978,-105.244179
1787711,"Horizons K-8 School","Boulder","4545 Sioux Drive ",,39.993511,-105.237534
18008052,"RoadNarrows Robotics","Loveland","125 East 5th St",,40.396603,-105.075485
18010582,"Leeds School of Business","Boulder","Koelbel building, Room S125 (downstairs from main entrance)",,0,0
18043482,"Google Boulder","Boulder","2590 Pearl Street, Boulder, CO 80302",,0,0
18043482,"Google Boulder","Boulder","2590 Pearl Street, Boulder, CO 80302",,40.021397,-105.26125
18043482,"Google Boulder","Boulder","2590 Pearl Street, Boulder, CO 80302",,40.021404,-105.26097
18078832,"King Soopers","Broomfield","1150 U.S. 287",,39.933186,-105.088486
18096252,"Wine and Whey","Denver","3559 Larimer St",,39.767502,-104.973824
18169652,"Boulder Public Library","Boulder","1001 Arapahoe Ave",,40.013496,-105.281677
18204082,"CU Boulder","Boulder","ECCR 1B40",,40.015739,-105.279243
18235832,"CU Boulder","Boulder","ECCR 1B40",,40.015739,-105.279243
18241732,"The Innovation Pavilion ","Centennial","9200 E Mineral Ave",,39.573643,-104.882164
18280092,"Colorado Convention Center","Denver","700 14th St.",,39.742157,-104.996452
18311152,"Gilazzi","Fort Collins","128 S College Ave",,40.586521,-105.076881
1854421,"Rio Grande Mexican Restaurant","Fort Collins","143 W. Mountain Avenue",,40.58696,-105.078255
18558262,"Galvanize","Denver","1062 Delaware Street",,39.733536,-104.992615
18567062,"Stem ciders","Denver","2811 walnut st #150",,39.761303,-104.983612
18582252,"1956 Lawrence Meeting Room","Denver","1956 Lawrence Street",,39.751835,-104.99229
18582512,"San Francisco Airport Marriott Waterfront","Burlingame"," 1800 Old Bayshore Hwy",,0,0
18742512,"Spark Boulder ","Boulder","1310 College Avenue, Boulder, CO",,0,0
18781782,"FullContact HQ","Denver","1621 18th St #40",,39.753887,-104.997879
18790052,"SimpleEnergy HQ","Boulder","1215 Spruce Street, Suite 301, Boulder, CO",,40.019268,-105.280037
18913422,"Tivoli Lodge","Vail","386 Hanson Ranch Rd",,39.640129,-106.37133
18967152,"SportsLabs","Boulder","1468 Pearl Street, Suite 200",,40.018559,-105.276527
18987442,"River North Brewing","Denver","2401 Blake St. Unit 1",,39.758713,-104.9892
19022732,"Pellucid Analytics","Boulder","1426 Pearl st suite 100",,40.018475,-105.276932
19031572,"LogRhythm","Boulder","4780 Pearl E Cir",,40.021152,-105.241951
19031752,"LogRhythm","Boulder","4870 Pearl E Cir",,40.021114,-105.239334
19166852,"Craftsy Offices","Denver","999 18th St., Suite 240",,39.749203,-104.991341
19179662,"Impact HUB Boulder","Boulder","1877 Broadway, Suite 100",,40.01651,-105.279846
19205112,"Bohemian Biergarten","Boulder","2017 13th St",,40.018768,-105.278885
19214052,"SendGrid ","Denver","1451 Larimer Street, 3rd Floor,",,39.747921,-104.999184
19237692,"Tivoli Lodge","Vail","386 Hanson Ranch Rd",,39.640129,-106.37133
19313082,"Spark Boulder","Boulder","1310 E College Ave #100",,40.007038,-105.275871
19333462,"Oracle Broomfield Office: Bldg 1 Cafeteria","80021","500 Eldorado Blvd , Broomfield",,39.920143,-105.128578
19335972,"SendGrid - Denver","Denver","1451 Larimer Street, 3rd Floor",,39.747921,-104.999184
19356272,"University of Colorado Law School Room 206","Boulder","2450 Kittredge Loop Road",,40.00388,-105.264839
19418302,"Koelbel building, Leeds School of Business, Room 340","Boulder","995 Regent Drive",,40.00499,-105.262177
19418542,"Vita Restaurant &  Bar (Denver Highlands) ","Denver","1575 Boulder Street",,39.759239,-105.010979
19418752,"Lodo's Park Meadows (DTC)","Highlands Ranch","8545 S Quebec Street",,39.562565,-104.905319
19449252,"Central Park Recreation Center at Stapleton","Denver","9651 E. Martin Luther King Boulevard",,39.740009,-104.992302
19457532,"Silver Creek High School","Longmont","4901 Nelson Rd",,40.152428,-105.166809
19540102,"Jake Jabs Center at CU Denver","Denver","1475 Lawrence Street",,39.747536,-104.998337
1956841,"Morton's The Steakhouse - Denver","Denver","1710 Wynkoop Street",,39.753063,-104.999298
19664052,"CU Boulder","Boulder","ATLAS 100",,40.015739,-105.279243
19688132,"The Studio Boulder","Boulder","3550 Frontier Ave #2",,40.022079,-105.248116
19707902,"SendGrid","Boulder","1401 Walnut St., Suite #500",,40.017704,-105.276779
19708742,"Trueffect","Westminster","10170 Church Ranch Way",,39.881554,-105.07386
19799062,"Cherry Creek Harbor","Aurora","13740 E. Quincy Ave",,39.638466,-104.827888
19834942,"Lime","Denver","500 16th street mall",,39.743816,-104.991333
19850332,"Koelbel building, Leeds School of Business, Room S125","Boulder","995 Regent Drive",,40.00499,-105.262177
19903442,"Webroot Software INC","Broomfield","385 Interlocken Cres 800",,39.924114,-105.11837
19923852,"Industry","Denver","29th and Brighton Blvd",,39.764351,-104.98658
20002472,"Galvanize Boulder","Boulder","1023 Walnut St.",,40.016544,-105.281685
20036312,"Eco-Cycle","Boulder","6400 Arapahoe",,40.01368,-105.203857
20037542,"Sovrn Offices @ 29th Street Mall","Boulder","1750 29th Street, Suite 2036",,40.017529,-105.254837
2006691,"SurveyGizmo","Boulder","4888 Pearl East Circle, Suite 300W",,40.020668,-105.239342
2009421,"Grind Haus","Denver","1229 East 17th Avenue",,39.743279,-104.97123
20105712,"SendGrid Boulder Office","Boulder","1401 Walnut, Suite 500",,40.017704,-105.276779
20108232,"Ping Identity Corp","Denver","1001 17th St Ste 100",,39.748344,-104.993866
20108232,"Ping Identity Corp","Denver","1001 17th St Ste 100",,39.749523,-104.99324
20108422,"The Westin Westminster","Westminster","10600 Westminster Blvd",,39.890011,-105.067581
20160222,"Dorsey & Whitney","Denver","1400 Wewatta Street, Suite 400",,39.750721,-105.003334
20161182,"Cranknstein","Fort Collins","215B North College Ave",,40.589474,-105.077499
2021661,"Creative Density Coworking","Denver","1719 Emerson St.",,39.743732,-104.976265
20422852,"Rally Software","Denver","1550 Wynkoop, Second Floor",,39.740009,-104.992302
20422892,"Rally Software","Denver","1550 Wynkoop St, 2nd Floor",,39.751221,-105.001663
20423392,"Society","Denver","1434 Blake St",,39.748978,-105.000687
20428072,"University of Colorado Boulder -  Koelbel Building, Room 320","Boulder","996 Regent Drive, 419 UCB, ",,40.015739,-105.279243
20463182,"License No. 1","Boulder","Boulderado Hotel ",,40.015739,-105.279243
20539952,"Time Warner Cable","Broomfield","12101 Airport Way",,39.914711,-105.107727
20611102,"Turing","Denver","1510 Blake Street, Basement",,0,0
20636872,"Super Audio Center","Boulder","3063 Sterling Cir Ste 5",,40.030579,-105.228203
20651252,"Alchemy","Colorado Springs","2625 W. Colorado Ave.",,38.848553,-104.86541
20663592,"North Midway Park Shelter","Broomfield","Near Midway Boulevard and Marble Street",,39.922276,-105.086159
20663592,"North Midway Park Shelter","Broomfield","Near Midway Boulevard and Marble Street",,39.923138,-105.08476
20791452,"PaySimple","Denver","1515 Wynkoop St., Suite 250",,39.751587,-105.002266
20929442,"Metropoint","Centennial","4600 Ulster St.",,39.631626,-104.896019
20929442,"Metropoint","Centennial","4600 Ulster St.",,39.631626,-104.89602
20951482,"DeVry University Room 148","Westminster","1870 W. 122nd Ave.",,39.91909,-105.009216
21034802,"Point Gallery","Denver","765 Santa Fe",,39.728767,-104.998695
21049332,"Shine Restaurant & Gathering Place","Boulder","2027 13th Street",,40.018791,-105.278946
21103432,"Level 3 Events Center - Entrance on the North Side","Broomfield","1025 Eldorado Blvd",,39.920601,-105.144279
21129932,"Simple Energy","Boulder","1215 Spruce St, Suite #301",,40.019268,-105.280037
21162952,"Society Sports and Spirits","Denver","1434 Blake St",,39.749229,-105.000885
21263302,"Bristol Brewery","Colorado Springs","1604 S Cascade Ave",,38.810925,-104.827293
21274012,"King Center of the Auraria Higher Education Center","Denver","855 Lawrence Way",,39.742779,-105.005951
21363662,"RoundPegg","Boulder","1433 Pearl Street, Suite 300",,40.018574,-105.276901
21384262,"Starz","Englewood","8900 Liberty Cir",,39.555214,-104.844559
21426952,"Boulder County Fairgrounds","Longmont","1900 Ken Pratt Boulevard",,40.146233,-105.12384
21426952,"Boulder County Fairgrounds","Longmont","1900 Ken Pratt Boulevard",,40.15542,-105.12856
21472302,"Galvanize Boulder","Boulder","1035 Pearl St.",,40.017796,-105.281944
21674932,"Galvanize","Denver","1062 Delaware Street",,39.733536,-104.992615
21765462,"Boulder Valley Unitarian Universalist Fellowship","Lafayette","1241 Ceres Dr",,39.989281,-105.111832
21797032,"Boulder Valley Unitarian Universalist Fellowship","Lafayette","1241 Ceres Dr",,39.989281,-105.111832
21930072,"Turing School of Software & Design","Denver","1510 Blake Street",,39.749573,-104.999969
21974712,"ProKarma","Greenwood Village","5670 Greenwood Plaza Blvd. Suite 100W",,39.612534,-104.900764
22053452,"VictorOps Mountain Basecamp","Boulder","1401 S. Pearl Street Suite 300",,0,0
22068292,"LogRhythm","Boulder","4780 Pearl E Cir",,40.021152,-105.241951
22151422,"DeVry University Room 145","Westminster","1870 W. 122nd Ave.",,39.91909,-105.009216
22288992,"Colorado College","Colorado Springs","14 East Cache La Poudre St",,38.84663,-104.824234
22428642,"denhac","Denver","700 E Kalamath St",,39.727577,-104.999779
22436432,"CU - Hellems 141","Boulder","Broadway and Euclid Avenue",,40.00552,-105.271538
22445942,"Pivotal Denver Office","Denver","1553 Platte Street, Suite 305",,39.757488,-105.008659
22446082,"denhac","Denver","700 Kalamath St.",,39.727577,-104.999779
22460872,"Midway Park Booth Blue J","Broomfield","1200 W Midway Blvd",,39.923023,-105.08136
22479712,"denhac","Denver","700 Kalamath St.",,39.727577,-104.999779
22479732,"denhac","Denver","700 Kalamath St.",,39.727577,-104.999779
22479832,"denhac","Denver","700 Kalamath St.",,39.727577,-104.999779
22479922,"denhac","Denver","700 Kalamath St.",,39.727577,-104.999779
22481062,"Microsoft","Denver","7595 Technology Way, 4th Floor",,39.631588,-104.904633
22596482,"Kapost","Boulder","1800 Broadway",,40.016293,-105.279373
22634752,"Sparkfun Electronics","Niwot","6333 Dry Creek Parkway",,40.08989,-105.186226
22698652,"Pearson Education: South Metro Denver Chamber of Commerce"," Centennial","2154 E Commons Ave #342",,39.591225,-104.963287
22846062,"Denver Marriott South"," Lone Tree","10345 Park Meadows Dr",,39.541767,-104.870949
22846252,"Pearson Education: South Metro Denver Chamber of Commerce","Centennial","2154 E Commons Ave #342",,39.591225,-104.963287
22889812,"Gorilla Logic","Boulder","1500 Pearl Street Suite 300",,40.018536,-105.275299
22983532,"Joyride Brewing","Edgewater","2501 Sheridan Blvd",,39.753193,-105.053246
23139682,"Puzzah","Denver","1440 Blake Street, Unit 150",,39.749046,-105.000595
23221712,"DeVry University Room 137","Westminster","1870 W. 122nd Ave.",,39.91909,-105.009216
23222872,"Parker Garage","Parker","19402 E Mainstreet",,39.5186,-104.763222
23278072,"Boomtown Accelerator","Boulder","2060 Broadway St. ",,40.018505,-105.280144
23290582,"1451 Larimer Street","Denver","3rd Floor",,0,0
23383152,"Cinternational.com","Denver","4337 Raleigh Street",,39.775959,-105.041985
23401182,"Arvada Center for the Arts and Humanities","Arvada","6901 Wadsworth Blvd",,39.823235,-105.081436
23442562,"Big Data for Social Good Challenge","Global","Web only",,33.86,-84.4
23466052,"Voltage Advertising + Design","Louisville","901 Front Street #300",,39.978848,-105.130814
23482383,"Steam Espresso Bar","Denver","1801 S Pearl St",,39.683846,-104.980484
23487907,"Erik and Diana's House","Northglenn","10481 Pennsylvania Street",,39.887016,-104.980331
23489125,"In-Tea","Littleton","2440 W Main St",,39.613712,-105.016678
23496872,"Pellucid Analytics - Boulder","80301","2545 Central Ave, suite 200",,40.024502,-105.219131
23511364,"Fluoro Finder","Broomfield","390 Interlocken Cres",,39.92437,-105.116051
23519229,"University of Colorado Law School Room 306","Boulder","2450 Kittredge Loop Road",,40.003311,-105.263092
23537468,"Loveland CreatorSpace","Loveland","320 Railroad Ave",,40.403881,-105.075699
23538582,"The Grand America Hotel","Salt Lake City","555 South Main Street",,40.75737,-111.889648
23551058,"LogRhythm - Engineering Office","Boulder","4840 Pearl East Circle",,40.02087,-105.240852
23555204,"Galvanize","Boulder","1035 Pearl Street",,40.017796,-105.281944
23557634,"inworks @ UCD","Denver","1250 14th St",,39.746944,-104.999382
23559823,"Train Heroic","Boulder","7007 Winchester Circle",,40.079525,-105.190247
23562258,"Denver Chophouse & Brewery","Denver","1735 19th St",,39.755066,-104.997612
23565672,"Denver Metro Chamber of Commerce","Denver","1445 Market St",,39.748737,-105.000053
23571672,"Rock Bottom Brewery","Denver","1001 16th St Unit A-100",,39.747295,-104.994942
2357391,"ATLAS Building","Boulder","1125 18th St.",,40.007759,-105.269791
23574932,"Boulder County Fairgrounds","Longmont","9595 Nelson Road",,40.152447,-105.127136
23576078," ECCR Engineering Center Room 1B51 ","Boulder","Engineering Center (next to Leeds School)",,40.015739,-105.279243
23578135,"Philip S Miller Park","castle rock","1375 W Plum Creek Pkwy",,39.371403,-104.877441
23579638,"Mile High Spirits","Denver","2201 Lawrence Street",,39.754539,-104.989281
23580908,"Rock Bottom Brewery","Denver","1001 16th Street",,39.74733,-104.994904
23585748,"Whittier Cafe","Denver","1710 East 25th Avenue",,39.753162,-104.966896
23586069,"Comcast","Denver","1899 Wynkoop",,39.75428,-104.997993
23593293,"Denver Press Club","Denver","1330 Glenarm Pl",,39.741459,-104.993401
23600930,"Judge Baldwin's","Colorado Springs","4 S Cascade Ave",,38.833221,-104.82547
23609360,"DevelopIntelligence","Boulder","3200 Carbon Place, Suite 101",,40.02618,-105.251373
23610043,"Shine Restaurant & Gathering Place","Boulder","2027 13th St",,40.018803,-105.278893
23620172,"Thrive Workplace","Denver","201 Milwaukee Street, Suite 200",,39.719677,-104.952522
23620181,"Thrive Workplace","Denver","201 Milwaukee Street, Suite 200",,39.719677,-104.952522
23627609,"Anythink Commerce City","Commerce City","7185 Monaco St",,39.826721,-104.912682
23628084,"Aleph Objects Inc","Loveland","626 W 66th St",,40.458881,-105.086205
23648262,"Conference Room","Greenwood Village","7350 E Progress Pl #100",,39.620853,-104.903366
2364891,"Ping Identity Corp.","Denver","1001 17th St., Suite 100",,39.748142,-104.993568
23650754,"Skookum - Denver","Denver","707 17th Street, Suite 3275 (32nd Floor) ",,39.746983,-104.990486
23666074,"IHS Global Headquarters","Denver","321 Inverness Drive South",,39.565033,-104.859238
23672494,"The Mezzanine ","Colorado Springs","20 North Tejon Street",,38.834736,-104.823952
23673143,"Code Talent","Denver","2980 Larimer St.",,39.762039,-104.980797
23689266,"DeVry University Room 135","Westminster","1870 W. 122nd Ave., Westminster, CO",,0,0
23692767,"University of Colorado, Math Building","Boulder","Math 100",,40.015739,-105.279243
23693153,"Shutterstock","Denver","1515 Arapahoe ","Tower 3, Suite 200",39.74772,-104.99671
23693153,"Shutterstock","Denver","1515 Arapahoe ","Tower 3, Suite 200",39.747993,-104.997
23697414,"DeVry University Room 128","Westminster","1870 W. 122nd Ave.",,39.91909,-105.009216
23699428,"CommercialTribe","Denver","1444 Wazee St., Suite 130",,39.749851,-105.001663
23702002,"Stout St. Social","Denver","1400 Stout St.",,39.744026,-104.99529
237042,"bivio Software, Inc.","Boulder","2701 Iris (28th & Iris)","Suite S (above Hair Elite)",40.036469,-105.258446
23706548,"Rally Software","Boulder","3333 Walnut St",,40.019924,-105.249306
23707118,"Docker Birthday Party","Denver","42 Hacker Way",,39.863789,-105.215286
23709497,"Discovery Lab at the Broomfield Library","Broomfield","3 Community Park Rd",,39.91877,-105.069359
23711404,"Summit Event Center","Aurora","411 Sable Blvd North",,39.723274,-104.821213
23724982,"CU ATLAS Institute","Boulder","1125 18th St #223 Room 104",,39.999111,-105.270027
23733071,"Santa Clara Convention Center","Santa Clara","5001 GREAT AMERICA PKWY ",,37.403618,-121.977608
23738735,"Pivotal - Denver","Denver","1644 Platte Street","Suite 200",39.757618,-105.00688
23742643,"Denver Place Business Center","Denver","999 18th Street, Suite 3000",,39.749203,-104.991341
23746943,"1201 Center Avenue Mall","Fort Collins","Morgan Library Computer Lab 175",,0,0
23753871,"Arapahoe Basin Ski Area","Keystone","28194 Us Hwy 6",,39.643032,-105.87188
23757244,"Denver University","Denver","2199 S University Blvd",,39.676754,-104.959442
23762715,"Shutterstock","Denver","1515 Arapahoe Tower 3, Suite 200",,39.700001,-105.080002
23764271,"Galvanize Platte","Denver","1644 Platte St",,39.757751,-105.007538
23765966,"Society","Denver","1434 Blake St",,39.749229,-105.000885
23777102,"Washington Hilton","Washington","1919 Connecticul Ave., NW",,38.915936,-77.04628
23781478,"Spark","Boulder","1310 College Ave",,40.007038,-105.275871
23784319,"University of Colorado","Boulder","995 Regent Drive",,40.00499,-105.262177
23785348,"Galvanize- Platte Street","Denver","1644 Platte Street",,39.75775,-105.00754
23785348,"Galvanize- Platte Street","Denver","1644 Platte Street",,39.757751,-105.007538
23786724,"2399 Blake Street","Denver","Suite 160",,0,0
23788235,"Mapquest","Denver","1555 Blake St # 3",,39.750278,-104.999504
23788543,"MapQuest","Denver","1555 Blake St # 3",,0,0
23788724,"Morgan Library, Room 175","Fort Collins","1201 Center Avenue Mall",,40.573414,-105.08451
23799669,"Denver Museum of Nature & Science","Denver","2001 Colorado Blvd",,39.747517,-104.940865
23799946,"Shutterstock","Denver","1515 Arapahoe Street",,39.747719,-104.996712
23805530,"Clement Park, Shelter #3","Littleton","7306 W Bowles Ave",,39.606697,-105.0803
23806515,"Discovery Lab at the Mamie Doud Eisenhower Public Library in Broomfield","Broomfield","3 Community Park Rd",,39.917629,-105.068802
23812197,"Galvanize","Denver","1644 Platte Street ",,39.757618,-105.006882
23816409,"Galvanize - Boulder","Boulder","1035 Pearl St. -- 5th Floor",,40.017796,-105.281944
23818251,"Boomtown Accelerator","Boulder","2060 Broadway St",,40.018494,-105.280205
23819064,"Solid State Depot","Boulder","1965 33rd Street, UNIT B, Boulder, CO",,0,0
23827047,"Hampton Inn","Boulder","6333 Lookout Road",,40.072498,-105.205765
23828893,"Taxi - Rino Art District (Drive 2)","Denver","3461 Ringsby Ct",,39.771862,-104.981766
23829877,"POSSIBLE Mobile","Denver","820 16th St #700",,39.746136,-104.993912
23831621,"St. Julien Hotel","Boulder","900 Walnut St.",,40.015694,-105.282539
23834472,"MapQuest","Denver","1555 Blake St., 3rd floor",,39.750511,-104.999687
23845275,"Pivotal Labs - NEW OFFICE!","Denver","1644 Platte St. ",,39.757618,-105.006882
23846773,"Industry Denver","Denver","3001 Brighton Blvd",,39.764526,-104.986519
23851301,"Sanitas Brewing Company","Boulder","3550 Frontier Ave Ste A",,40.022423,-105.247383
23853049,"Deer Creek Open Space ","Littleton ","13896 Grizzly Dr. ",,39.543552,-105.1531
23870174,"Avoka","Broomfield","10901 W 120th Ave",,39.915901,-105.118202
23872901,"1500 Wynkoop Street, Suite 500 ","Denver","Denver, CO 80202",,39.751095,-105.00161
23875291,"Google Boulder","Boulder","2600 Pearl Street",,40.021553,-105.259895
23875885,"LogRhythm","Boulder","Room 105 4840 Pearl E. Circle",,40.020889,-105.240829
23882502,"Apps Consultants Inc","Centennial","6909 S Holly Cir, Suite # 350",,39.59095,-104.922134
23893768,"Cresa Partners","Denver","1515 Arapahoe St Ste 300",,39.747398,-104.996254
23895231,"Food at the Riverside","Boulder","1724 Broadway St, Boulder, CO",,0,0
23917371,"Galvanize - Platte","Denver","1644 Platte St",,39.757618,-105.006882
23918499,"Uncommon Solutions","Greenwood Village","6530 South Yosemite Street Suite 204",,39.598312,-104.888451
23920599,"Galvanize - Denver/Platte","Denver","1644 Platte St",,39.757618,-105.006882
23935815,"Swiftpage","Denver","621 17th St Ste 500",,39.745773,-104.990532
23936733,"Ale House At Amato’s","Denver","2501 16th St.",,39.758671,-105.009109
23937644,"Forest Springs Park","Arvada","6660 Kendrick Drive",,39.816525,-105.170006
23937867,"Amethyst Coffee Company","Denver","1111 Broadway St Ste 101",,39.734058,-104.987389
23941110,"Galvanize - Golden Triangle","Denver","1062 Delaware Street",,39.733528,-104.992599
23941693,"Pivotal Labs","Denver","1644 Platte St. Ste 200",,39.757618,-105.006882
23942586,"ReadyTalk","Denver","1900 16th St, Suite #600",,39.753258,-105.003822
23953764,"Innovation Pavilion","Centennial","9200 E Mineral Ave",,39.574009,-104.882156
23962799,"BrieBug Consulting, Inc.","Lakewood","12596 W Bayaud Ave, Suite 250",,39.71331,-105.140266
23964506,"Current place: Liniger Building at CU South Denver (The Wildlife Experience)","Parker","10035 s Peoria St.",,39.534954,-104.844742
23980633,"Analytics8 ","Denver","621 17th Street, 11th Floor",,39.746315,-104.989464
23991149,"Industry Denver","Denver","3001 Brighton Blvd Ste 359",,39.764446,-104.986458
23995456,"Online via Adobe Connect ","Denver","See info below",,39.740009,-104.992302
24001432,"Jagged Mountain Craft Brewery","Denver","1139 20th St",,39.751869,-104.991241
24010308,"Community Foundation","Boulder","1123 Spruce St",,40.018772,-105.28112
24011625,"Parker Office of Economic Development  ","Parker","19801 E Main St",,39.518383,-104.759293
24012036,"Castlewood Library","Centennial","6739 S. Uinta St. ",,39.594425,-104.894203
24018261,"PACE Center","Parker","20000 Pikes Peak Avenue",,39.516724,-104.756836
24018766,"ClickFox","Denver","2000 CO-2 #1, Denver, CO 80222",,0,0
24019394,"Galvanize","Denver","Galvanize Denver - Platte, 1644 Platte St",,0,0
24022115,"Rally Software Development","Denver","1550 Wynkoop St",,39.751251,-105.001701
24023528,"Galvanize","Denver","1644 Platte St.",,39.757618,-105.006882
24023530,"Galvanize","Denver","1644 Platte St.",,39.757618,-105.006882
24023732,"Denver Marriott South at Park Meadows","Lone Tree","10345 Park Meadows Dr",,39.541702,-104.870735
24025601,"Galvanize","Fort Collins","242 Linden St.",,40.588482,-105.074219
24037662,"Louisville Public Library","Louisville","951 Spruce St",,39.977764,-105.131432
24039518,"Galvanize","Denver","Galvanize Denver - Platte, 1644 Platte St",,0,0
24042941,"Avanti F&B, a collective eatery","Denver","3200 Pecos St",,39.762238,-105.006454
24044097,"Dark Horse","Boulder","2229 Baseline",,40.00015,-105.26462
24045719,"GTRI","Denver","990 South Broadway, Suite 300",,39.698349,-104.987419
24051860,"Perficient Inc","Denver","999 18th St Ste 1000",,39.74873,-104.991951
24053618,"Adobe's Utah Center","Lehi","Remotely Join via Adobe Connect",,40.38966,-111.847473
24054882,"Galvanize","Boulder","1035 Pearl Street , Boulder, 80302",,0,0
24055047,"Denver Beer Company","Denver","1695 Platte St",,39.758209,-105.007027
24061331,"Galvanize Denver - Golden Triangle","Denver","1062 Delaware St",,39.733524,-104.992935
24066546,"Online","Denver","N/A",,38.753147,-105.182732
24070804,"Galvanize","Boulder","1035 Pearl St",,40.017719,-105.28196
24072597,"Galvanize Boulder","Boulder","1035 Pearl St. (5th Floor)",,40.017719,-105.28196
24073105,"CodeCraft School of Technology","Boulder","1600 Range St Suite 101",,40.015121,-105.229599
24073404,"Pivotal Labs","Denver","1644 Platte Street",,39.757839,-105.007095
24080249,"Pier 27","San Francisco","The Embarcadero",,37.799263,-122.397675
24081024,"Rocky Mountain Center for Innovation and Technology","Loveland","815 14th Street SW",,40.379032,-105.089592
24081074,"Weldwerks Brewing Co. ","Greeley","508 8th avenue ",,40.427822,-104.68997
24082529,"Galvanize Platte","Denver","1644 Platte Street",,39.757839,-105.007095
24083003,"Tuliva","Denver","2399 Blake St.",,39.758488,-104.990303
24088062,"The Commons On Champa","Denver","1245 Champa St",,39.743656,-104.998169
24096143,"Boulder Green Building Guild","Boulder","1720 15th Street",,40.015205,-105.274658
24096442,"University of Colorado Denver","Denver","1200 Larimer Street",,39.746132,-105.000984
24105368,"80 Garden Center","Broomfield","80 Garden Center",,39.923424,-105.089447
24106372,"Information Builders","Denver","4600 S. Ulster Street,  #820",,39.631901,-104.895958
24112979,"Amante Coffee LoDo","Denver","1612 17th St",,39.752338,-104.999672
24124598,"The Glasshouse","Denver","1700 Bassett Street",,39.756668,-105.003128
24126294,"Galvanize U","San Francisco","44 Tehama Street",,37.787495,-122.39653
24136249,"DaVinci Institute","Westminster","9191 N. Sheridan Blvd.","Suite 300",39.86304,-105.05387
24136281,"Thirsty Bear","San Francisco","661 Howard Street",,37.78548,-122.399597
24140357,"Galvanize","Denver","1644 Platte Street, Suite 400",,39.757839,-105.007095
24149654,"1201 Larimer Street, Denver, CO 80204 - Room ACAD 1600","Denver","1201 Larimer Street, Denver, CO 80204 - Room ACAD 1600",,39.746391,-105.002335
24150425,"Shutterstock Offices","Denver","1515 Arapahoe Street, Tower lll, 2nd Floor",,39.739235,-104.99025
24150530,"Stapleton Master Community Association","Denver","7350 E. 29th Ave. #300",,39.757915,-104.902107
24152101,"Westminster Marriott","Westminster","7000 Church Ranch Blvd.",,39.883892,-105.074631
24158361," Kittredge Hall on CU campus","Boulder"," 2400 Kittredge Loop Drive",,40.003014,-105.26309
24168517,"Activision","Boulder","2511 31st St Boulder, CO 80301",,40.027081,-105.252991
24168545,"gizmo dojo","Northglenn","10481 Pennsylvania St",,39.887016,-104.980331
24168709,"Residence","Denver","10481 Pennsylvania St, Northglenn",,39.887016,-104.980331
24168911,"Parker Pace ","Parker","20000 Pikes Peak Avenue, , CO ",,39.516788,-104.757141
24172180,"GoSpotCheck","Denver","1520 Market St,, second floor",,39.739235,-104.99025
24173704,"Turing","Denver","1510 Blake St",,39.749634,-105.000107
24175832,"iTriage Office #2 (not 1500!)","Denver","1515 Wynkoop St. 3rd floor",,39.75145,-105.002106
24184978,"Barnes & Noble","Thornton","701 E. 120th Avenue",,39.916481,-104.976967
24186601,"Celtic Tavern","Denver","1801 Blake St",,39.752792,-104.9968
24186601,"Celtic Tavern","Denver","1801 Blake St",,39.752792,-104.996803
24188390,"GE Software","San Ramon","2623 Camino Ramon",,37.767239,-121.958412
24188418,"University of Colorado Denver","Denver","1201 Larimer Street Room ACAD 1600",,39.739235,-104.99025
24188422,"Tuliva","Denver","2399 Blake St #150",,39.758488,-104.990303
24189422,"iTriage (2nd office)","Denver","1515 Wynkoop St. 3rd floor",,0,0
24189587,"Merkle","Denver","1050 17th St #2100",,39.748363,-104.994247
24190584,"Quaker Steak and Lube","Broomfield","10392 Reed St, Westminster, CO 80021",,39.885792,-105.072762
24191736,"Blake Street Vault","Denver","1526 Blake Street",,39.749825,-104.999619
24194703,"Eisenhower Room at the Mamie Doud Eisenhower Public Library in Broomfield","Broomfield","3 Community Park Rd, Broomfield, CO",,39.917744,-105.068855
24196212,"Pivitol","Denver","1644 Platte St",,39.757839,-105.007095
24197253,"Microsoft Denver HQ","Denver","7595 Technology Way","Suite 400",39.630646,-104.90275
24204104,"Celtic Tavern","Denver","1801 Blake St. ",,39.752792,-104.996803
24204479,"Ramskeller, Lory Student Center, CSU Campus","Fort Collins","1101 Central Ave Mall",,40.574188,-105.084496
24204802,"Ping Identity","Denver","1001 17th St., Suite 100, Denver, CO, 80202, us",,39.748844,-104.993744
24212371,"Galvanize Boulder - West Pearl","Boulder","1035 Pearl St","5th Floor",40.01772,-105.28196
24214395,"Industry Building","Denver","3001 Brighton Blvd. ",,39.765114,-104.986382
24215262,"ICC Towers Senapati Bapat Road","Pune","Sumant Moolgaokar Auditorium, No. 1 (A Wing, Ground Floor) 505, A-Wing, MCCIA Trade Tower, ICC Complex, 403, Senapati Bapat Road",,18.53072,73.830086
24218699,"Wynkoop Brewery (Upstairs on Landing)","Denver","17th and Wynkoop",,39.752838,-104.999702
24219051,"Oracle Data Cloud (Westmoor Technology Park,  Building #2)","Westminster","10075 Westmoor Drive",,39.896378,-105.110146
24234999,"Silicon STEM Academy ","Denver","4201 E. Yale Ave., Suite 130",,39.668648,-104.938896
24235518,"Modular Robotics","Boulder","1860 38th Street Boulder, CO 80301",,40.01889,-105.245049
24238039,"Galvanize Denver - Platte","Denver","1644 Platte St",,39.757839,-105.007095
24250060,"the Software Freedom School HQ: comfy room","LIttlton","4237 W. Grand Ave.",,39.63023,-105.041115
24250803,"Workiva","Boulder","1470 Walnut St",,40.017357,-105.276024
24251150,"CA Technologies (formerly Rally Software)","Denver","1550 Wynkoop St",,39.751381,-105.001389
24251596,"Platte Park Brewing Company","Denver","875 S Pearl St, Denver, CO 80210",,39.70076,-104.980431
24256315,"Fuse at the Riverside ","Boulder","1724 Broadway St",,40.014515,-105.278542
24261426,"Afrik Mall","Aurora","10180 E Colfax Ave",,39.739704,-104.869858
24273130,"Asynchrony Labs","Denver","2300 15th Street",,39.755421,-105.008461
24283555,"Zak and Anne's place","Broomfield","Ponderosa Place",,39.91198,-105.063553
24285424,"Gnip / Twitter Boulder","Boulder","1050 Walnut Street, Suite 115",,40.0163,-105.28135
24285498,"Denver Public Library","Denver","10 W. 14th Avenue Parkway",,39.737263,-104.988144
24286920,"Comcast","Denver","1899 Wynkoop, 5th floor",,39.754635,-104.997879
24288984,"Wonder Press","Boulder","946 Pearl St",,40.017189,-105.282661
24289620,"Jackson's Denver","Denver","1520 20th Street",,39.754383,-104.995232
24290408,"http://dtd.analyticsweek.com/","Online","http://dtd.analyticsweek.com/",,0,0
24296949,"Deis","Boulder","1801 13th St. Suite 308",,40.016602,-105.278519
24296954,"Deis","Boulder","1801 13th St. Suite 308",,40.016602,-105.278519
24297899,"Colorado Collaborative for Non-Profits","Denver","789 Sherman St. Suite 210",,39.728672,-104.985245
24308667,"The Mode Set, Ello & Guiceworks offices","Denver","1610 Little Raven St, Suite 135",,39.755001,-105.004341
24315196,"Auraria Campus, North Classroom Bldg, Room 3015","Denver","1200 Larimer Street",,39.746132,-105.000984
24320374,"Athlinks","Louisville","1795 Dogwood St. Suite 400",,39.967796,-105.115509
24325646,"Business Tech Center","Greenwood Village","8301 E Prentice Ave",,39.62101,-104.891914
24326711,"First Draft","Denver","1309 26th St. (26th Street & Larimer)",,39.739235,-104.99025
24340097,"FORTRUST Denver ","Denver","4300 Brighton Blvd. Denver, CO 80216",,39.777351,-104.968208
24350450,"University of Colorado Law School Room 207","Boulder","2450 Kittredge Looop Road",,40.001141,-105.262421
24359050,"RingCentral","Centennial ","8005 S Chester Street  2nd Floor",,39.571747,-104.880829
24371005,"Welltok","Denver","1675 Larimer St., Suite 640",,39.750114,-104.99675
24372167,"TransFirst","Aurora","3131 S Vaughn Way #350",,39.660297,-104.836967
24374582,"It is a Webcast","Denver","Online",,39.739235,-104.99025
24375722,"Online","Denver","https://meetings.webex.com/collabs/meetings/join?uuid=MCLBR4YGZWPUNQOPUBV9BUI26S-5BYX",,0,0
24381050,"Webcast","Denver","Online",,39.739235,-104.99025
24383132,"CODE // TALENT","Denver","2980 Larimer Street",,39.761971,-104.980583
24390618,"Epiphany Ai","Denver","3461 Ringsby Ct #245",,39.772327,-104.983795
24392297,"Agriculture C Building, Computer Lab Rm 316","Laramie","University of Wyoming Campus",,41.311367,-105.591103
24393877,"General Assembly ","Denver","3001 Brighton Boulevard  Denver",,39.765324,-104.98616
24399258,"Galvanize","Denver","1062 Delaware St.",,39.733513,-104.992584
24399269,"App-X","Broomfield","590 Burbank St., #220",,39.926228,-105.094757
24402101,"Building 2, Room# 1250","Denver","7604 Technology Way, DTC",,39.632118,-104.899918
24402525,"Fastly, Inc.","Denver","1445 Market Street, Suite 280",,39.748901,-105.000023
24403014,"Online","Denver","https://meetings.webex.com/collabs/meetings/join?uuid=MARR022T5HDMEMQTCL08MBB8ZW-5BYX",,0,0
24408744,"Koelbel Building, Room S110","Boulder","995 Regent Dr., University of Colorado",,40.005711,-105.263519
24412089,"Univeristy of Denver Daniels School of Business","Denver","2101 S University Blvd",,39.677521,-104.959877
24412872,"Galvanize Platte Campus- Lower Level - Classroom 1","Denver","1644 Platte Street",,39.757774,-105.007133
24419410,"Qwinix Technologies","Centennial","9155 E Nichols Ave","Suite 300",39.572693,-104.882385
24420101,"Colorado Department of Law","Denver","2 E 14th Ave, Denver, CO 80203",,39.737144,-104.986839
24421887,"Doubletree by Hilton Tech Center ","Greenwood Village"," 7801 E Orchard Rd ",,39.610683,-104.897797
24430460,"Adams County Fair Grounds","Brighton","9755 Henderson Rd.",,39.928288,-104.875351
24431368,"Marlowes","Denver","501 16th Street",,39.744129,-104.990364
24435569,"The Ranch Events Complex - First National Bank Building","Loveland","5280 Arena Circle",,40.443024,-104.986389
24436324,"Rock Bottom Brewery","Denver","1001 16th St. Unit A-100",,39.747841,-104.994911
24440310,"Lark IT","Denver","600 S. Broadway",,39.70556,-104.987236
24440977,"One City Block","Denver","444 E 19th Ave",,39.745522,-104.981712
24448695,"TIBCO Software Inc","Denver","6430 S Fiddlers Green Circle, Suite 125",,39.598289,-104.891479
24453355,"Kranect Offices, First Floor Conference Room","Denver","1720 S. Bellaire Street",,39.685299,-104.936974
24456159,"Redline Library","Denver","2350 Arapahoe Street",,39.754818,-104.986221
24457592,"Twitter","Englewood","@TechrIoTorg and IP_feed ",,39.647766,-104.987762
24457893,"Arapahoe Community College","Parker","15653 Brookstone Dr. ",,39.541409,-104.809494
24458076,"Online","Denver","https://meetings.webex.com/collabs/meetings/join?uuid=M693MK1J381J7RQHJF1MWE5EAP-5BYX ",,39.739235,-104.99025
24468607,"The Gnarly Root","Parker","9355 Crown Crest Blvd",,39.548195,-104.773186
24470290,"Live Webinar","TIBCO","By Tim Alexander",,0,0
24475646,"Rezora","Boulder","929 Pearl Street, Suite 350",,40.017509,-105.283333
24476291,"Nighthawk Brewery","Broomfield","2780 Industrial Ln",,39.920792,-105.10128
24480485,"Declaration Brewery","Denver","2030 S. Cherokee St.",,39.679775,-104.990768
24486405,"Innosphere","Fort Collins","320 E Vine Dr #101",,40.596546,-105.071976
24490288,"General Assembly @ WeWork","Denver","1550 Wewatta st (2nd floor)",,39.752563,-105.002312
24494211,"The Ranch Larimer County Fairgrounds","Loveland","5280 Arena Circle ",,40.443024,-104.986389
24496340,"Santa Clara Convention Center","Santa Clara","5001 Great America Pkwy",,37.404671,-121.97525
24500051,"Mircrosoft","Denver","7595 Technology Way #400",,39.630646,-104.902748
24500051,"Mircrosoft","Denver","7595 Technology Way #400",,39.630646,-104.90275
24509497,"Vines Wine Bar and Bistro","Parker","19501 Mainstreet",,0,0
24512154,"Koelbel Building 255 (Leeds School)","Boulder","995 Regent Dr., University of Colorado, Boulder, CO",,40.005684,-105.263474
24514318,"System76","Denver","1600 Champa St. Ste 360",,39.7465,-104.99325
24514437,"Online","Denver","https://meetings.webex.com/collabs/#/meetings/detail?uuid=M2RW2EOSYOWN2PX5YXJ5XZL0RC-5BYX&rnd=381105.96082",,0,0
24518812,"Cloverhound, Inc.","Denver","16th & California Street (next to Jimmy John's)",,39.744976,-104.99207
24525149,"Ombud","Denver","717 17th Street, Suite 1510",,39.746883,-104.991234
24526301,"General Assembly","Denver","2420 17th St, 3rd Floor  ",,39.75845,-105.007622
24530120,"General Assembly @ WeWork LoHi","Denver","2420 17th St",,39.75845,-105.007622
24536331,"TIBCO Denver","Denver","6430 S. Fiddlers Green Circle Ste 125",,39.598289,-104.891479
24536414,"Axial","Boulder","944 Pearl Street",,40.01709,-105.282715
24537309,"Galvanize Denver - Platte St","Denver","1644 Platte St",,39.757774,-105.007133
24540639,"DaVita","Denver","DaVita 2000 16th St. Denver, CO 80202 ",,39.754105,-105.000221
24552408,"WeWork","Denver","1550 Wewatta St",,39.752563,-105.002312
24554896,"Mode Set","Denver","1610 Little Raven St, Suite 135",,39.755035,-105.004219
24555231,"Oracle","Denver","7604 Technology Way Building 2,  Room 1240  ",,39.632118,-104.899918
24557551,"Think Topic","Boulder","741 Pearl Street",,40.016968,-105.285812
24559997,"Wild Game","Evergreen","1204 Bergen Parkway",,39.692444,-105.354683
24562097,"Ibotta","Denver","1801 California Street Suite 400",,39.747704,-104.989784
24563925,"CU Boulder Campus","Boulder","VAC 1B20 Auditorium",,40.014984,-105.270546
24566564,"Online","Denver","WebEx",,39.739235,-104.99025
24572636,"TIBCO Software Inc","Denver","6430 S Fiddlers Green Circle, Suite 125",,39.598289,-104.891479
24580050,"IQ Navigator","Centennial","6465 Greenwood Plaza Blvd #800",,39.599617,-104.896095
24581652,"Global Online Hackathon","Any City","Any Street",,36.778259,-119.417931
24583633,"The Commons on Champa, Lounge area","Denver","1245 Champa St, Denver, CO 80204",,39.743656,-104.998169
24583889,"MojoTech - Boulder","Boulder","1731 15th St","#103",40.01559,-105.275375
24586994,"ECS Team - Denver","Greenwood Village","5575 DTC Parkway; Ste 135",,39.614746,-104.8954
24591063,"Fox and Hound","Lone Tree","9239 Park Meadows Dr",,39.555923,-104.880562
24592208,"Rustic","Rustic","31410 Poudre Canyon Road",,40.699512,-105.581245
24592465,"Secure Set","Denver","3801 Franklin St.",,39.770203,-104.968689
24595274,"TIBCO Denver","Denver","6430 S. Fiddlers Green Cir. 125",,39.598289,-104.891479
24610017,"Bldg 3 – East Conference Room","Denver","7604 Technology Drive",,39.632118,-104.899918
24610745,"Boulder Library - Boulder Creek Room","Boulder","1001 Arapahoe Avenue",,40.01395,-105.281769
24611341,"Signal-to-Noise Media Labs","Denver","2921 Walnut St.",,39.762573,-104.9824
24618790,"Bohemian Beirgarten","Boulder","2017 13th St",,40.018574,-105.278908
24634496,"Colorado State University","Fort Collins","1101 Center Avenue Mall",,40.572678,-105.083733
24637147,"Enterprise ","Denver","3000 Lawrence Street ",,39.761623,-104.97963
24648897,"Englewood Public Library - Anderson Room","Englewood","1000 Englewood Pkwy",,39.65468,-104.999054
24649574,"Computer Doc","Denver","4956 E. Colfax Ave",,39.739891,-104.929565
24656764,"Digital Workshop Center","Fort Collins","324 Remington St #130",,0,0
24657414,"Fyin.com","Denver","2955 Inca Street Unit K1",,39.75932,-104.99878
24659507,"Crownpeak","Denver","707 17th St, Suite 3800",,39.747112,-104.990486
24660532,"Galvanize - Platte","Denver","1644 Platte Street Denver CO 80202",,39.757774,-105.007133
24668110,"DaVita","Denver","2000 16th St.",,39.754105,-105.00022
24669087,"Study Room 2, Eloise May Library (Arapahoe Libraries) , ","Denver","1471 S Parker Rd, Denver, CO 80231.",,39.689976,-104.891266
24669432,"Denver Performing Arts Complex The Chambers Grant Salon","Denver","1400 Curtis Street - The Chambers Grant Salon",,39.739235,-104.99025
24673365,"General Assembly","Denver","2420 17th St, 3rd Floor",,39.75845,-105.007622
24674868,"General Assembly @ WeWork LoHi","Denver","2420 17th St, 3rd floor",,39.75845,-105.007622
24682049,"Koelbel Library (Arapahoe Libraries),","Centennial"," 5955 South Holly Street, Centennial, CO 80121",,39.608932,-104.923622
24684773,"Online","Denver","Online",,0,0
24688932,"Springhill Suites Denver Downtown","Denver","1190 Auraria Parkway Denver, Colorado 80204",,39.747498,-105.003868
24690046,"Boulder Public Library - Flagstaff Room","Boulder","1001 Arapahoe Ave",,40.01395,-105.281769
24696364,"Trident Cafe Courtyard (""in the back"")","Boulder","940 Pearl Street",,0,0
24701781,"TEKsystems","Centennial","6300 S Syracuse Way #750",,39.601376,-104.898186
24708410,"Regis University 3333 Regis Boulevard","Denver","Claver Hall 315",,39.791752,-105.031952
24708534,"Inworks Lab at CU Denver","Denver","1250 14th Street",,39.746723,-104.999641
24708845,"Wolff Law Building - Room #307","Boulder","CU Campus - Boulder, CO",,40.001141,-105.262421
24716089,"Galvanize","Denver","1644 Platte St",,39.757774,-105.007133
24723875,"Galvanize SF Campus","San Francisco","44 Tehama St.",,0,0
24728366,"Castlewood Library Conference Room","Centennial","6739 S. Uinta Street",,39.594666,-104.894005
24740770,"Galvanize Denver - Platte","Denver","1644 Platte St, 4th Floor Atrium ",,39.739235,-104.99025
24743616,"Galvanize Boulder","Boulder","1023 Walnut St. Boulder, CO",,0,0
24744200,"Develop Intelligence","Boulder","3200 Carbon Place, Unit 101",,40.026226,-105.251648
24745891,"Hudson Mercantile Bldg","New York","500 West 36th Street",,40.755863,-73.99865
24761637,"Virtual Meet-Up","Denver","Online, At your desk!",,39.739235,-104.99025
24777661,"Schoolrunner Office","Denver","3461 Ringsby Court, Suite 315",,39.772285,-104.983727
24782816,"Centerpoint II","Denver","1777 S Harrison St #202, Denver, CO 80210",,39.684303,-104.9422
24783131,"Wolff Law Building - Room #206","Boulder","CU Campus - 2450 Kittredge Loop Road",,40.001141,-105.262421
24789545,"IBM  ","Denver","4700 S. Syracuse Street",,39.626835,-104.898491
24790042,"Ace Eat Serve","Denver","501 E 17th Street Avenue",,39.744808,-104.989197
24790153,"University of Denver - Margery Reed Building -  Reiman Auditorium","Denver","2306 E. Evens Ave",,39.678192,-104.960548
24792181,"Faction Media","Suite 800","1401 17th Street",,39.751339,-104.996994
24799314,"LoHi Steakbar","Denver","3200 Tejon St",,39.762249,-105.011002
24805523,"Denver Marriott Westminster","Westminster","7000 Church Ranch Blvd",,39.883865,-105.074532
24805820,"@TwitterBoulder","Boulder","1301 Walnut Street, 4th Floor",,40.017406,-105.278099
24806161,"General Assembly","Denver","2420 17th St, 3rd Floor",,39.75845,-105.007622
24813159,"Ping Identity Corp Suite 800","Denver","1001 17th St Ste 800",,0,0
24813580,"Twitter Boulder","Boulder","1301 Walnut Street, FL 4",,40.017406,-105.278099
24815616,"Galvanize","Boulder","1023 Walnut Street",,40.016544,-105.281685
24815617,"Galvanize","Boulder","1023 Walnut Street",,40.016544,-105.281685
2719681,"CA Technologies","Boulder","3333 Walnut Street",,40.019947,-105.24939
2729831,"Uncubed","Denver","2762 Walnut Street",,39.760908,-104.983859
2808241,"Wild Mountain Smokehouse","Nederland","70 East 1st Street",,39.961807,-105.509369
2910121,"Bing Office","Boulder","1900 15th Street",,40.017944,-105.275703
292433,"Rock Bottom","Denver","1001 16th St. Mall",,39.759998,-104.970001
2981961,"West Woods Golf Course","Arvada","6655 Quaker Street",,39.821564,-105.178162
3117071,"Denver Beer Co","Denver","1695 Platte Street",,39.758663,-105.006477
320684,"Irish Rover","Denver","54 S Broadway",,39.715553,-104.98755
328859,"Avery Brewing Company","Boulder","5763 Arapahoe Ave","Location closed 2015",40.014706,-105.21917
3295752,"SpringHill Suites Denver North/Westminster","Westminster","6845 W. 103rd Avenue",,39.883221,-105.072433
3462612,"Crook's Palace Restaurant","Black Hawk","200 Gregory St",,39.801456,-105.494835
3584102,"walnut brewery","Boulder","1123 walnut",,40.016796,-105.280388
3621002,"Wash Perk","Denver","853 East Ohio Avenue",,39.702068,-104.977486
3634622,"ReportGrid Offices","Boulder","1909 Broadway, Suite 200",,40.017113,-105.279854
3651292,"Examiner.com","Denver","555 17th Street Suite 400",,39.745209,-104.989563
3667822,"Carbondale Beer Works","Carbondale","647 Main St",,39.400646,-107.213142
3965082,"Solid State Depot","Boulder","5311 Western Ave, Suite 115",,40.017982,-105.229706
4032012,"National Western Complex","Denver","4655 Humboldt st",,39.781044,-104.971573
415205,"Atlanta Bread","Northglenn","351 W 104th Ave","(north, next to Old Navy)",39.888039,-104.990547
4304302,"denhac","Denver","975 E 58th Ave, Unit N",,39.80307,-104.974937
4357202,"Colorado Community College System","Denver","Building 758, Room 138, 1059 Alton Way",,39.729599,-104.883438
436335,"Forest Room 5","Denver","2532 15th Street","www.forestroom5.com",39.757755,-105.010895
436335,"Forest Room 5","Denver","2532 15th Street","www.forestroom5.com",39.757793,-105.011246
4403202,"Highland Tavern","Denver","3400 Navajo Street",,39.764511,-105.004059
4543162,"Mathematics, Boulder, CO 80302","Boulder","Mathematics, Boulder, CO 80302",,40.007732,-105.264557
4545072,"FullContact","Denver","1621 18th Street, Suite 40, Denver, CO 80202",,39.753887,-104.997879
4673562,"SHINE Restaurant & Gathering Place","Boulder","13th Steet",,40.028877,-105.280296
4725302,"Donnell Kay Foundation","Denver","730 17th St # 950",,39.746296,-104.991936
4787442,"The Magnolia Hotel - Denver","Denver","818 17th Street",,39.746695,-104.992106
483088,"Fluid Coffee Bar","Denver","501 E 19th Ave",,39.746166,-104.98106
493516,"Bar Louie","Westminster","10661 Westminster Blvd",,39.890141,-105.068893
4958052,"AppliedTrust","Boulder","1033 Walnut St",,40.016937,-105.281487
5007842,"Teach For America","Denver","1391 Speer Blvd # 710",,39.737614,-104.997955
5086412,"Return Path","Broomfield","8001 Arista Place",,39.905804,-105.087509
5121112,"Oracle","Broomfield","500 Eldorado Boulevard",,39.922585,-105.131821
5184582,"The Innovation Pavilion ","Centennial","9200 E Mineral Ave",,39.573987,-104.882133
522125,"Twisted Pine Brewery","Boulder","3201 Walnut Street","Suite A",40.0201,-105.25079
5366302,"scrib","Boulder","2060 North Broadway St",,40.0186,-105.280197
5403752,"Google+","Denver","You're going to telecommute this one",,39.739155,-104.984703
5431892,"The Westin Denver Downtown","Denver","1672 Lawrence Street",,39.749199,-104.995636
543680,"Open Media Foundation","Denver","700 Kalamath",,39.727577,-104.999779
5463672,"Fluid Meeting Spaces","Denver"," 501 E 19th Ave",,39.746368,-104.980904
5471822,"CoHere, LLC (New Location)","Fort Collins","418 South Howes Street",,40.582108,-105.080208
5553012,"Noahs - Westminster Location","Westminster","11885 N Bradburn Blvd",,39.911655,-105.04164
5556912,"Sports Authority Field at Mile High","Denver","1701 Bryant Street",,39.685909,-105.018059
5622082,"DaVinci Vault","Louisville","511 E. South Boulder Rd,",,39.987244,-105.136482
5651092,"Denver Marriott Tech Center","Denver","4900 S. Syracuse St",,39.626945,-104.901878
5773852,"Penn Street Perk","Denver","1300 Pennsylvania St # 101",,39.737087,-104.980728
5967932,"Shine Restaurant and Gathering Place","Boulder","2027 13th Street",,40.018837,-105.279022
5985232,"Mathematics, University of Colorado at Boulder, Boulder, CO 80305","Boulder","Mathematics, University of Colorado at Boulder, Boulder, CO 80305",,40.007732,-105.264557
6050742,"City Hall Night Club","Denver","1144 Broadway",,39.734753,-104.987236
6149652,"The Village Tavern","Broomfield","1 West Flatiron Crossing Dr # 100",,39.932938,-105.132469
6151432,"Tarantula Billiard & Bar","Denver","1520 Stout St",,39.745018,-104.993927
6181442,"Anythink Library","Thornton","5877 East 120th Avenue",,39.914097,-104.918236
6303312,"Gordon Biersch","Broomfield","1 West Flatiron Crossing Drive",,39.932938,-105.132469
6420882,"Piccolo","Denver","3563 South Monaco Parkway",,39.652077,-104.913055
6492192,"Tendril Networks","Boulder","2580 55th St",,40.025551,-105.223366
6500922,"Brown Palace Hotel","Denver","321 17th Street",,39.744061,-104.987762
6505622,"Rockyard American Grill & Brewing Company","Castle Rock","880 Castleton Road",,39.40905,-104.869705
663697,"Trident Booksellers and Cafe","Boulder","940 Pearl St",,40.0172,-105.28331
663714,"Southern Sun Pub & Brewery","Boulder","627 S Broadway St",,39.98472,-105.24926
663728,"Gordon Biersch Brewery","Broomfield","1 W Flatiron Cir",,39.929955,-105.13088
663869,"Common Grounds","Denver","1550 17th St","#110",39.751695,-104.99897
663877,"Hansons Tavern","Denver","1301 S Pearl St",,39.69278,-104.980743
663904,"Forest Room 5","Denver","2532 15th St",,39.757755,-105.010895
663963,"Falling Rock Tap House","Denver","1919 Blake St",,39.75356,-104.99531
663991,"Hooked on Colfax","Denver","3213 E Colfax Ave",,39.740315,-104.949634
663995,"Denver Zoo","Denver","2300 Steele St",,39.751034,-104.949066
664157,"Plum Valley Park","Littleton","10230 W Westridge Village Pkwy",,39.528313,-105.01945
6679272,"Boulder Creek Meeting Room, Boulder Public Library","Boulder","1001 Arapahoe Avenue",,40.01395,-105.281769
6698852,"Westin Westminster","Westminster","10600 Westminster Blvd",,39.89082,-105.064514
676236,"Magnolia Hotel ","Houston","1100 Texas St",,29.759438,-95.36167
679533,"East Library","Colorado Springs","5550 N Union Blvd",,38.912712,-104.778488
681260,"Folsom Street Coffee","Boulder","1795 Folsom St",,40.016975,-105.263283
681656,"D-Note","Arvada","7519 Grandview Ave",,39.799518,-105.080985
686411,"Wynkoop Brewery ","Denver","1634 18th St",,39.753213,-104.99776
6899742,"Gorilla Logic","Boulder","1500 Pearl St, Suite 300",,40.018536,-105.275299
692637,"DeVry University ","Englewood","6312 S Fiddlers Green Cir",,39.602372,-104.893369
6962472,"Harlequin Plaza, South","Greenwood Vlg","7600 East Orchard Road",,39.608192,-104.900726
704849,"Auraria Campus","Denver","900 Auraria Pkwy",,39.746381,-105.007477
705860,"Boulder Public Library","Boulder","1000 Canyon Blvd ",,40.015275,-105.281878
706313,"Lazy Dog Sports Bar & Grill","Boulder","1346 Pearl St",,40.018076,-105.27752
708933,"Wynkoop","Denver","1634 18th St",,39.753213,-104.99776
709259,"Faction Media","Denver","1730 Blake St","Suite 200",39.752091,-104.997156
7110552,"Rooster & Moon Coffee Pub","Denver","955 Bannock St",,39.731472,-104.990466
7130812,"Level 3 Communications, Event Center","Broomfield","1025 Eldorado Blvd",,39.921768,-105.143738
7198522,"Scrib","Boulder","2060 North Broadway Street",,40.018681,-105.279839
7387992,"Rembrandt Yard","Boulder","1301 Spruce Street",,40.01926,-105.278717
7463242,"Boulder Library","Boulder","1001 Arapahoe Avenue",,40.01395,-105.281769
7481802,"(Virtual), Denver, CO","Denver","(Virtual), Denver, CO",,39.738262,-105.164803
757788,"Yak and Yeti","Arvada","7803 Ralston Rd",,39.802078,-105.084027
760503,"Wolf Law Building","Boulder","2450 Kittredge Loop Dr",,40.003435,-105.262317
7619872,"Prost Brewing Company","Denver","2540 19th Street",,39.761379,-105.006676
763501,"Blake Street Tavern","Denver","2301 Blake St",,39.757689,-104.990435
7642242,"SparkFun Electronics","Boulder","6175 Longbow Drive",,40.064896,-105.209938
773401,"The Sink","Boulder","1165 13th St",,40.008506,-105.276578
7803682,"SpotXchange headquarters","Westminster","11030 CirclePoint Road, Suite 350",,39.897038,-105.074966
7839072,"Microsoft/Bing","Boulder","1900 15th St. (northeast corner of 15th and Walnut) ",,40.014984,-105.270546
7857742,"Bates/Logan Park","Englewood","2938 S. Logan St",,39.663326,-104.98291
7859612,"Sloan's Lake Park","Denver","1700 N Sheridan Blvd.",,39.684345,-105.053215
7861952,"Beatport","Denver","2399 Blake Street #170",,39.758141,-104.989456
7960042,"The Block Building","Denver","2990 Larimer Street",,39.762005,-104.980545
8152062,"Omni Interlocken Resort","Broomfield","500 Interlocken Boulevard",,39.92775,-105.118935
817157,"Cool River Cafe","Greenwood Village","8000 E. Belleview Ave",,39.62371,-104.89602
8257652,"Innovation Pavilion","Centennial ","9200 East Mineral Avenue #325",,39.573998,-104.882095
8281842,"Red Rocks Amphitheater","Morrison","18300 W. Alameda Parkway",,39.66774,-105.208969
830298,"The Cup","Boulder","1521 Pearl St.",,40.019134,-105.275427
8435982,"Penwood Place Apartments 800 Pennsylvania St. -- Party Room on Parking Level","Denver","Please use door code 436# and then take the elevator or stairs down to the lower level",,39.737568,-104.984718
8496002,"Fado Irish Pub","Denver","1735 19th Street",,39.755199,-104.99704
856189,"Chad's Grill","Lakewood","275 Union Blvd",,39.720726,-105.132853
8603362,"Occipital","Boulder","1801 13th Street, Suite 202",,40.016499,-105.278793
8623072,"Central Park Recreation Center at Stapleton","Denver","9651 E. Martin Luther King Boulevard",,39.760075,-104.872398
866115,"Conference Room(Upper level),Lafayette Public Library","Lafayette","775 West Baseline Road",,40.000267,-105.099152
8733272,"Innovation Pavilion ","Centennial ","9200 East Mineral Ave",,39.573997,-104.882095
8734222,"Innovation Pavilion","Centennial ","9200 East Mineral Ave",,39.573997,-104.882095
8795672,"Jet Stream Pool, Stapleton","Denver","3574 Alton Street",,39.766331,-104.880829
880317,"King Center ","Denver","Auraria campus","KC 145 Concert Hall",39.742032,-105.003607
8813342,"The Desk Denver","Denver","230 E. 13th Ave. ",,39.73671,-104.98407
8854672,"Dave and Busters","Westminster","10667 Westminster #100  Westminster, CO 80020",,39.890839,-105.070244
889331,"Auraria Campus - Tivoli Center","Denver","Speer & Auraria Pkwy","Tivoli - Room 320B",39.748436,-105.003403
8981032,"Sam Gary library in Stapleton - 720-865-0325  Map: http://bit.ly/UcjmO","Denver","2961 Roslyn St. ",,39.759327,-104.900536
8989212,"American Red Cross Mile High Chapter","Denver","444 Sherman Street",,39.723499,-104.984734
9106102,"Gnip","Boulder","1050 Walnut St, Suite 115 Boulder",,40.016083,-105.281189
9120502,"Breckenridge Brewery","Denver","2220 Blake Street",,39.756416,-104.991425
913450,"Pearl Street Grill","Denver","1477 S Pearl Street",,39.6897,-104.980763
915751,"Philip S. Miller Library","Castle Rock","100 S. Wilcox",,39.368107,-104.859558
9163582,"Phoenix Asylum","Boulder","2510 47th Street",,40.025955,-105.241837
916876,"PPA Event Center","Denver","2105 Decatur St.",,39.749225,-105.022616
918539,"Parsec Group","Denver","999 18th Street","Suite 1725",39.749199,-104.991339
9187842,"Lodo's Bar and Grill","Denver","1946 Market Street",,39.753258,-104.993713
9191732,"SHIFT - Boutique Workspaces","Denver","383 Corona Street",,39.709564,-104.974556
9191732,"SHIFT - Boutique Workspaces","Denver","383 Corona Street",,39.72168,-104.97427
9191732,"SHIFT - Boutique Workspaces","Denver","383 Corona Street",,39.721794,-104.97432
9191732,"SHIFT - Boutique Workspaces","Denver","383 Corona Street",,39.721836,-104.97421
919735,"SPACE GALLERY","Denver","765 Santa Fe Drive",,39.728666,-104.998617
922475,"Casselman's Bar & Venue","Denver","2620 walnut street",,39.759412,-104.985468
925233,"Oracle","Denver","7700Technology Way","Building 3",39.631879,-104.900908
9376222,"DaVita World Headquarters","Denver","2000 16th St.",,39.753822,-105.003319
9722872,"Kachina Southwestern Grill","Westminster","10600 Westminster Boulevard (Westin Hotel)",,39.836655,-105.037201
9801522,"Meadows Branch Library","Boulder","4800 Baseline Road",,39.998672,-105.235504
9889782,"Innovation Pavilion - ""InEvent Room""","Englewood","9200 East Mineral Ave, Centennial, CO 80112",,39.574844,-104.88472
9942932,"Galvanize","Denver","1062 Delaware Street",,39.733536,-104.992615
9942942,"Galvanize","Denver","1062 Delaware Street",,39.733536,-104.992615
999204,"Rustic Oven","Fort Collins","123 N. College Ave.",,40.587807,-105.077609
